EUTELSAT 8 WEST B       
1 40875U 15039B   25327.94044744 -.00000045  00000+0  00000+0 0  9995
2 40875   0.0668 359.9533 0004196 247.5272 146.2547  1.00271418 37599
EUTELSAT 9B             
1 41310U 16005A   25327.94382747  .00000083  00000+0  00000+0 0  9993
2 41310   0.0829  78.8360 0004363 182.6526 150.4678  1.00273454 36059
EUTELSAT 65 WEST A      
1 41382U 16014A   25327.92909404 -.00000256  00000+0  00000+0 0  9998
2 41382   0.0586  22.2574 0002491 228.6001  81.5797  1.00270020 35474
EUTELSAT 117 WEST B     
1 41589U 16038B   25327.63347669  .00000008  00000+0  00000+0 0  9994
2 41589   0.0091 149.2856 0000608 137.8024 246.8270  1.00277279 34600
EUTELSAT 172B           
1 42741U 17029B   25327.83341792  .00000016  00000+0  00000+0 0  9998
2 42741   0.0340 155.7470 0000202 242.7179 136.6492  1.00275616 31678
EUTELSAT 7C             
1 44334U 19034B   25327.94339412  .00000069  00000+0  00000+0 0  9992
2 44334   0.0755 183.1726 0003002  38.2052 188.4494  1.00270339  4771
EUTELSAT 5 WEST B       
1 44624U 19067A   25327.94105411 -.00000022  00000+0  00000+0 0  9990
2 44624   0.0673 334.1911 0003126 267.1134 155.6585  1.00271404 22374
EUTELSAT KONNECT        
1 45027U 20005B   25327.94339412  .00000070  00000+0  00000+0 0  9994
2 45027   0.0672 100.8948 0001410 200.1497 108.9450  1.00268648 22268
